OBJECT_NAME,OBJECT_ID,EPOCH,MEAN_MOTION,ECCENTRICITY,INCLINATION,RA_OF_ASC_NODE,ARG_OF_PERICENTER,MEAN_ANOMALY,EPHEMERIS_TYPE,CLASSIFICATION_TYPE,NORAD_CAT_ID,ELEMENT_SET_NO,REV_AT_EPOCH,BSTAR,MEAN_MOTION_DOT,MEAN_MOTION_DDOT
GAOFEN-9 05,2020-058A,2026-05-26T06:09:34.637760,15.31572463,.00090246,97.2106,187.1286,163.0913,197.0631,0,U,46232,999,32025,.317352E-3,.9614E-4,0
SAOCOM 1B,2020-059A,2026-05-26T07:03:13.673664,14.82151653,.00015233,97.8894,332.4548,83.9441,276.1945,0,U,46265,999,31024,.61963165E-4,.441E-5,0
GNOMES-1,2020-059B,2026-05-26T02:50:56.721984,15.00195965,.00124722,97.7874,356.4798,82.9819,277.2822,0,U,46266,999,31228,.22442125E-3,.2748E-4,0
ATHENA,2020-061D,2026-05-26T03:46:39.317664,15.48340034,.00025305,97.1924,210.5745,102.1010,258.0525,0,U,46275,999,31874,.30073268E-3,.15824E-3,0
NEMO-HD,2020-061F,2026-05-26T07:03:27.889920,15.44086345,.00027287,97.1935,208.4741,107.0487,253.1060,0,U,46277,999,31860,.25575716E-3,.11609E-3,0
GHGSAT-C1,2020-061G,2026-05-26T05:54:46.857888,15.69664719,.00026918,97.2108,230.6747,119.8929,240.2601,0,U,46278,999,32003,.35693296E-3,.42265E-3,0
NAPA-1,2020-061BA,2026-05-26T07:35:15.836064,15.64940501,.00016967,97.2485,219.8248,141.3606,218.7775,0,U,46320,999,31831,.65118321E-3,.63963E-3,0
STARLINK-1654,2020-062B,2026-05-26T08:00:01.999872,15.93794316,.00081116,53.0333,304.1838,264.3869,337.9798,0,U,46326,999,587,.11015685E-2,.409253E-2,.76752104E-4
STARLINK-1686,2020-062D,2026-05-26T07:18:52.905600,16.13489428,.00127409,53.0261,281.9316,296.2140,63.7585,0,U,46328,999,31749,.11606729E-2,.140806E-1,.14579704E-2
STARLINK-1695,2020-062E,2026-05-25T23:47:14.357760,15.69333642,.00020283,53.0429,318.5616,129.2471,230.8726,0,U,46329,999,31695,.74715848E-3,.89513E-3,0
STARLINK-1719,2020-062G,2026-05-25T18:25:00.088896,15.73419237,.00069552,53.0374,319.8566,188.8240,171.2657,0,U,46331,999,31692,.83112324E-3,.118963E-2,0
STARLINK-1759,2020-062R,2026-05-26T03:35:09.657312,15.78477162,.00040613,53.0167,308.1037,250.9185,109.1395,0,U,46340,999,31710,.98908708E-3,.178123E-2,0
STARLINK-1762,2020-062T,2026-05-26T01:14:19.269024,15.36545354,.0004195,53.1558,10.0101,139.8677,220.2637,0,U,46342,999,31626,.12790744E-2,.46194E-3,0
STARLINK-1764,2020-062U,2026-05-26T08:00:01.999872,15.92876655,.00082015,53.0313,288.6656,284.8462,168.6533,0,U,46343,999,597,.1215759E-2,.430463E-2,.83118509E-4
STARLINK-1547,2020-062Y,2026-05-26T08:00:01.999872,15.82515754,.00057336,53.0331,253.2792,338.8437,191.9306,0,U,46347,999,578,.92137676E-3,.200351E-2,0
STARLINK-1553,2020-062Z,2026-05-26T02:57:59.916096,15.40571204,.0002846,53.0365,301.5656,60.8251,299.3037,0,U,46348,999,31721,.63464639E-3,.25883E-3,0
STARLINK-1646,2020-062AC,2026-05-26T04:48:33.722784,15.73985185,.00042889,53.0409,314.7180,288.6324,71.4228,0,U,46351,999,31704,.92526861E-3,.135948E-2,0
STARLINK-1653,2020-062AD,2026-05-26T08:00:01.999872,15.73905407,.00070392,53.0381,300.1482,172.4826,182.2831,0,U,46352,999,600,.6511603E-3,.94774E-3,0
STARLINK-1656,2020-062AE,2026-05-26T07:46:47.375616,15.66468053,.0005001,53.0426,341.4756,135.2415,224.9005,0,U,46353,999,31666,.84413271E-3,.90042E-3,0
STARLINK-1661,2020-062AG,2026-05-26T02:27:00.614880,15.36722627,.00049021,53.1560,9.6946,132.6534,227.4883,0,U,46355,999,31627,.23992065E-2,.87981E-3,0
STARLINK-1665,2020-062AH,2026-05-26T08:00:01.999872,15.83240978,.00055769,53.0353,311.2504,230.4681,11.6941,0,U,46356,999,601,.10056642E-2,.227026E-2,0
STARLINK-1666,2020-062AJ,2026-05-26T06:45:20.922624,15.76503961,.00013467,53.0367,312.1326,268.2481,91.8384,0,U,46357,999,31707,.76478667E-3,.125135E-2,0
STARLINK-1707,2020-062AL,2026-05-26T08:00:01.999872,15.82238357,.00057697,53.0189,248.7482,336.4836,252.5750,0,U,46359,999,600,.65007873E-3,.138335E-2,0
STARLINK-1724,2020-062BC,2026-05-25T09:00:48.212928,15.68003065,.00039948,53.0233,272.7731,236.8789,123.1843,0,U,46375,999,31754,.72822706E-3,.82521E-3,0
STARLINK-1770,2020-062BL,2026-05-25T03:28:22.287360,15.74652668,.00030344,53.0393,297.8738,189.9062,170.1897,0,U,46383,999,31717,.57300444E-3,.85887E-3,0
STARLINK-1771,2020-062BM,2026-05-26T05:57:07.321824,15.61248013,.00008328,53.0387,332.5228,69.7171,290.3931,0,U,46384,999,31678,.52879118E-3,.454E-3,0
GAOFEN-11 02,2020-064A,2026-05-26T07:48:55.994112,15.23341374,.00180358,97.5109,272.3202,21.6712,338.5284,0,U,46396,999,31820,.24512134E-3,.5775E-4,0
JILIN-1 GAOFEN 3E,2020-065D,2026-05-26T06:03:30.371904,15.60860312,.00108868,97.2281,198.3953,230.1093,129.9208,0,U,46457,999,31633,.71566204E-3,.60123E-3,0
JILIN-1 GAOFEN 3F,2020-065E,2026-05-26T05:48:10.100448,15.58517793,.00124823,97.2234,195.8185,219.7799,140.2543,0,U,46458,999,31628,.68970091E-3,.53011E-3,0
