GAOFEN-9 05             
1 46232U 20058A   26146.25665090  .00009614  00000+0  31735-3 0  9995
2 46232  97.2106 187.1286 0009024 163.0913 197.0631 15.31572463320251
SAOCOM 1B               
1 46265U 20059A   26146.29390826  .00000441  00000+0  61963-4 0  9994
2 46265  97.8894 332.4548 0001523  83.9441 276.1945 14.82151653310249
GNOMES-1                
1 46266U 20059B   26146.11871206  .00002748  00000+0  22442-3 0  9992
2 46266  97.7874 356.4798 0012472  82.9819 277.2822 15.00195965312280
ATHENA                  
1 46275U 20061D   26146.15739951  .00015824  00000+0  30073-3 0  9997
2 46275  97.1924 210.5745 0002530 102.1010 258.0525 15.48340034318749
NEMO-HD                 
1 46277U 20061F   26146.29407280  .00011609  00000+0  25576-3 0  9990
2 46277  97.1935 208.4741 0002728 107.0487 253.1060 15.44086345318609
GHGSAT-C1               
1 46278U 20061G   26146.24637567  .00042265  00000+0  35693-3 0  9992
2 46278  97.2108 230.6747 0002691 119.8929 240.2601 15.69664719320039
NAPA-1                  
1 46320U 20061BA  26146.31615551  .00063963  00000+0  65118-3 0  9990
2 46320  97.2485 219.8248 0001696 141.3606 218.7775 15.64940501318317
STARLINK-1654           
1 46326U 20062B   26146.33335648  .00409253  76752-4  11016-2 0  9990
2 46326  53.0333 304.1838 0008111 264.3869 337.9798 15.93794316  5870
STARLINK-1686           
1 46328U 20062D   26146.30477900  .01408060  14580-2  11607-2 0  9998
2 46328  53.0261 281.9316 0012740 296.2140  63.7585 16.13489428317494
STARLINK-1695           
1 46329U 20062E   26145.99113840  .00089513  00000+0  74716-3 0  9990
2 46329  53.0429 318.5616 0002028 129.2471 230.8726 15.69333642316951
STARLINK-1719           
1 46331U 20062G   26145.76736214  .00118963  00000+0  83112-3 0  9996
2 46331  53.0374 319.8566 0006955 188.8240 171.2657 15.73419237316927
STARLINK-1759           
1 46340U 20062R   26146.14941733  .00178123  00000+0  98909-3 0  9997
2 46340  53.0167 308.1037 0004061 250.9185 109.1395 15.78477162317102
STARLINK-1762           
1 46342U 20062T   26146.05161191  .00046194  00000+0  12791-2 0  9997
2 46342  53.1558  10.0101 0004195 139.8677 220.2637 15.36545354316262
STARLINK-1764           
1 46343U 20062U   26146.33335648  .00430463  83119-4  12158-2 0  9999
2 46343  53.0313 288.6656 0008201 284.8462 168.6533 15.92876655  5970
STARLINK-1547           
1 46347U 20062Y   26146.33335648  .00200351  00000+0  92138-3 0  9994
2 46347  53.0331 253.2792 0005733 338.8437 191.9306 15.82515754  5787
STARLINK-1553           
1 46348U 20062Z   26146.12361014  .00025883  00000+0  63465-3 0  9994
2 46348  53.0365 301.5656 0002846  60.8251 299.3037 15.40571204317213
STARLINK-1646           
1 46351U 20062AC  26146.20039031  .00135948  00000+0  92527-3 0  9993
2 46351  53.0409 314.7180 0004288 288.6324  71.4228 15.73985185317042
STARLINK-1653           
1 46352U 20062AD  26146.33335648  .00094774  00000+0  65116-3 0  9996
2 46352  53.0381 300.1482 0007039 172.4826 182.2831 15.73905407  6001
STARLINK-1656           
1 46353U 20062AE  26146.32415944  .00090042  00000+0  84413-3 0  9999
2 46353  53.0426 341.4756 0005001 135.2415 224.9005 15.66468053316668
STARLINK-1661           
1 46355U 20062AG  26146.10209045  .00087981  00000+0  23992-2 0  9992
2 46355  53.1560   9.6946 0004902 132.6534 227.4883 15.36722627316272
STARLINK-1665           
1 46356U 20062AH  26146.33335648  .00227026  00000+0  10057-2 0  9991
2 46356  53.0353 311.2504 0005576 230.4681  11.6941 15.83240978  6014
STARLINK-1666           
1 46357U 20062AJ  26146.28149216  .00125135  00000+0  76479-3 0  9999
2 46357  53.0367 312.1326 0001346 268.2481  91.8384 15.76503961317078
STARLINK-1707           
1 46359U 20062AL  26146.33335648  .00138335  00000+0  65008-3 0  9995
2 46359  53.0189 248.7482 0005769 336.4836 252.5750 15.82238357  6006
STARLINK-1724           
1 46375U 20062BC  26145.37555802  .00082521  00000+0  72823-3 0  9990
2 46375  53.0233 272.7731 0003994 236.8789 123.1843 15.68003065317546
STARLINK-1770           
1 46383U 20062BL  26145.14470240  .00085887  00000+0  57300-3 0  9997
2 46383  53.0393 297.8738 0003034 189.9062 170.1897 15.74652668317170
STARLINK-1771           
1 46384U 20062BM  26146.24800141  .00045400  00000+0  52879-3 0  9990
2 46384  53.0387 332.5228 0000832  69.7171 290.3931 15.61248013316785
GAOFEN-11 02            
1 46396U 20064A   26146.32564808  .00005775  00000+0  24512-3 0  9995
2 46396  97.5109 272.3202 0018035  21.6712 338.5284 15.23341374318205
JILIN-1 GAOFEN 3E       
1 46457U 20065D   26146.25243486  .00060123  00000+0  71566-3 0  9991
2 46457  97.2281 198.3953 0010886 230.1093 129.9208 15.60860312316335
JILIN-1 GAOFEN 3F       
1 46458U 20065E   26146.24178357  .00053011  00000+0  68970-3 0  9998
2 46458  97.2234 195.8185 0012482 219.7799 140.2543 15.58517793316284
